line1,line2,validFromUtcTime
1 00000U 00000E   26001.00000000  .00000000  00000-0  27772-4 0    01,2 00000  88.8959 135.3349 0010059 269.8878 322.5104 13.55300332    02,2026-01-01T00:00:00Z
1 00000U 00000E   26002.00000000  .00000000  00000-0  27772-4 0    02,2 00000  88.8959 135.2226 0010059 266.9778 161.5901 13.55300370    00,2026-01-02T00:00:00Z
